[{"OBJECT_NAME":"STARLINK-30824","OBJECT_ID":"2023-167B","EPOCH":"2026-03-09T08:39:31.379040","MEAN_MOTION":15.26728143,"ECCENTRICITY":0.00010306,"INCLINATION":43.0003,"RA_OF_ASC_NODE":145.3645,"ARG_OF_PERICENTER":257.0695,"MEAN_ANOMALY":103.0041,"EPHEMERIS_TYPE":0,"CLASSIFICATION_TYPE":"U","NORAD_CAT_ID":58176,"ELEMENT_SET_NO":999,"REV_AT_EPOCH":13093,"BSTAR":0.00012600724,"MEAN_MOTION_DOT":3.121e-5,"MEAN_MOTION_DDOT":0},{"OBJECT_NAME":"TITAN 3C TRANSTAGE DEB","OBJECT_ID":"1965-108N","EPOCH":"2026-03-08T12:56:43.791936","MEAN_MOTION":4.49081839,"ECCENTRICITY":0.55762916,"INCLINATION":26.0243,"RA_OF_ASC_NODE":76.2376,"ARG_OF_PERICENTER":51.5732,"MEAN_ANOMALY":346.624,"EPHEMERIS_TYPE":0,"CLASSIFICATION_TYPE":"U","NORAD_CAT_ID":5632,"ELEMENT_SET_NO":999,"REV_AT_EPOCH":33851,"BSTAR":0.010491156,"MEAN_MOTION_DOT":5.367e-5,"MEAN_MOTION_DDOT":0}]
